CCSDS_OMM_VERS = 2.0
CREATION_DATE  = 
ORIGINATOR     = 

OBJECT_NAME    = SILVERSAT
OBJECT_ID      = 1998-067XV
CENTER_NAME    = EARTH
REF_FRAME      = TEME
TIME_SYSTEM    = UTC
MEAN_ELEMENT_THEORY = SGP/SGP4

EPOCH          = 2026-02-14T09:12:27.684864
MEAN_MOTION    = 15.64565325
ECCENTRICITY   = .0002912
INCLINATION    = 51.6267
RA_OF_ASC_NODE = 183.5285
ARG_OF_PERICENTER = 302.1319
MEAN_ANOMALY   = 57.9393

EPHEMERIS_TYPE = 0
CLASSIFICATION_TYPE = U
NORAD_CAT_ID   = 66909
ELEMENT_SET_NO = 999
REV_AT_EPOCH   = 1153
BSTAR          = .14246E-2
MEAN_MOTION_DOT = .14222E-2
MEAN_MOTION_DDOT = 0

CCSDS_OMM_VERS = 2.0
CREATION_DATE  = 
ORIGINATOR     = 

OBJECT_NAME    = ISS OBJECT XW
OBJECT_ID      = 1998-067XW
CENTER_NAME    = EARTH
REF_FRAME      = TEME
TIME_SYSTEM    = UTC
MEAN_ELEMENT_THEORY = SGP/SGP4

EPOCH          = 2026-02-14T09:42:57.074400
MEAN_MOTION    = 15.62815467
ECCENTRICITY   = .0002235
INCLINATION    = 51.6252
RA_OF_ASC_NODE = 183.6647
ARG_OF_PERICENTER = 332.2237
MEAN_ANOMALY   = 27.8637

EPHEMERIS_TYPE = 0
CLASSIFICATION_TYPE = U
NORAD_CAT_ID   = 66910
ELEMENT_SET_NO = 999
REV_AT_EPOCH   = 1153
BSTAR          = .11845E-2
MEAN_MOTION_DOT = .109816E-2
MEAN_MOTION_DDOT = 0

CCSDS_OMM_VERS = 2.0
CREATION_DATE  = 
ORIGINATOR     = 

OBJECT_NAME    = ISS OBJECT XX
OBJECT_ID      = 1998-067XX
CENTER_NAME    = EARTH
REF_FRAME      = TEME
TIME_SYSTEM    = UTC
MEAN_ELEMENT_THEORY = SGP/SGP4

EPOCH          = 2026-02-14T09:54:21.284640
MEAN_MOTION    = 15.66053079
ECCENTRICITY   = .0003946
INCLINATION    = 51.6234
RA_OF_ASC_NODE = 182.9638
ARG_OF_PERICENTER = 321.4653
MEAN_ANOMALY   = 38.6060

EPHEMERIS_TYPE = 0
CLASSIFICATION_TYPE = U
NORAD_CAT_ID   = 66911
ELEMENT_SET_NO = 999
REV_AT_EPOCH   = 1153
BSTAR          = .1545E-2
MEAN_MOTION_DOT = .164208E-2
MEAN_MOTION_DDOT = 0

CCSDS_OMM_VERS = 2.0
CREATION_DATE  = 
ORIGINATOR     = 

OBJECT_NAME    = ISS OBJECT XY
OBJECT_ID      = 1998-067XY
CENTER_NAME    = EARTH
REF_FRAME      = TEME
TIME_SYSTEM    = UTC
MEAN_ELEMENT_THEORY = SGP/SGP4

EPOCH          = 2026-02-14T09:56:49.496064
MEAN_MOTION    = 15.59642198
ECCENTRICITY   = .0000534
INCLINATION    = 51.6273
RA_OF_ASC_NODE = 184.4870
ARG_OF_PERICENTER = 329.8483
MEAN_ANOMALY   = 30.2479

EPHEMERIS_TYPE = 0
CLASSIFICATION_TYPE = U
NORAD_CAT_ID   = 66912
ELEMENT_SET_NO = 999
REV_AT_EPOCH   = 1151
BSTAR          = .98798E-3
MEAN_MOTION_DOT = .80627E-3
MEAN_MOTION_DDOT = 0

CCSDS_OMM_VERS = 2.0
CREATION_DATE  = 
ORIGINATOR     = 

OBJECT_NAME    = ISS OBJECT XZ
OBJECT_ID      = 1998-067XZ
CENTER_NAME    = EARTH
REF_FRAME      = TEME
TIME_SYSTEM    = UTC
MEAN_ELEMENT_THEORY = SGP/SGP4

EPOCH          = 2026-02-14T11:10:06.695328
MEAN_MOTION    = 15.49940259
ECCENTRICITY   = .0010622
INCLINATION    = 51.6302
RA_OF_ASC_NODE = 187.0736
ARG_OF_PERICENTER = 111.0726
MEAN_ANOMALY   = 249.1399

EPHEMERIS_TYPE = 0
CLASSIFICATION_TYPE = U
NORAD_CAT_ID   = 67683
ELEMENT_SET_NO = 999
REV_AT_EPOCH   = 118
BSTAR          = .71393E-3
MEAN_MOTION_DOT = .40491E-3
MEAN_MOTION_DDOT = 0

CCSDS_OMM_VERS = 2.0
CREATION_DATE  = 
ORIGINATOR     = 

OBJECT_NAME    = GXIBA-1
OBJECT_ID      = 1998-067YA
CENTER_NAME    = EARTH
REF_FRAME      = TEME
TIME_SYSTEM    = UTC
MEAN_ELEMENT_THEORY = SGP/SGP4

EPOCH          = 2026-02-14T11:05:15.548928
MEAN_MOTION    = 15.50759496
ECCENTRICITY   = .0012315
INCLINATION    = 51.6304
RA_OF_ASC_NODE = 187.0530
ARG_OF_PERICENTER = 104.8005
MEAN_ANOMALY   = 255.4349

EPHEMERIS_TYPE = 0
CLASSIFICATION_TYPE = U
NORAD_CAT_ID   = 67684
ELEMENT_SET_NO = 999
REV_AT_EPOCH   = 118
BSTAR          = .12202E-2
MEAN_MOTION_DOT = .71932E-3
MEAN_MOTION_DDOT = 0

CCSDS_OMM_VERS = 2.0
CREATION_DATE  = 
ORIGINATOR     = 

OBJECT_NAME    = CORAL
OBJECT_ID      = 1998-067YB
CENTER_NAME    = EARTH
REF_FRAME      = TEME
TIME_SYSTEM    = UTC
MEAN_ELEMENT_THEORY = SGP/SGP4

EPOCH          = 2026-02-14T11:09:07.823232
MEAN_MOTION    = 15.50082373
ECCENTRICITY   = .0012545
INCLINATION    = 51.6302
RA_OF_ASC_NODE = 187.0695
ARG_OF_PERICENTER = 106.6601
MEAN_ANOMALY   = 253.5766

EPHEMERIS_TYPE = 0
CLASSIFICATION_TYPE = U
NORAD_CAT_ID   = 67685
ELEMENT_SET_NO = 999
REV_AT_EPOCH   = 118
BSTAR          = .76896E-3
MEAN_MOTION_DOT = .43927E-3
MEAN_MOTION_DDOT = 0

CCSDS_OMM_VERS = 2.0
CREATION_DATE  = 
ORIGINATOR     = 

OBJECT_NAME    = ISS OBJECT YC
OBJECT_ID      = 1998-067YC
CENTER_NAME    = EARTH
REF_FRAME      = TEME
TIME_SYSTEM    = UTC
MEAN_ELEMENT_THEORY = SGP/SGP4

EPOCH          = 2026-02-14T11:08:17.604960
MEAN_MOTION    = 15.50244458
ECCENTRICITY   = .0007751
INCLINATION    = 51.6308
RA_OF_ASC_NODE = 187.0668
ARG_OF_PERICENTER = 81.2327
MEAN_ANOMALY   = 278.9539

EPHEMERIS_TYPE = 0
CLASSIFICATION_TYPE = U
NORAD_CAT_ID   = 67686
ELEMENT_SET_NO = 999
REV_AT_EPOCH   = 118
BSTAR          = .88585E-3
MEAN_MOTION_DOT = .50918E-3
MEAN_MOTION_DDOT = 0

CCSDS_OMM_VERS = 2.0
CREATION_DATE  = 
ORIGINATOR     = 

OBJECT_NAME    = LEOPARD
OBJECT_ID      = 1998-067YD
CENTER_NAME    = EARTH
REF_FRAME      = TEME
TIME_SYSTEM    = UTC
MEAN_ELEMENT_THEORY = SGP/SGP4

EPOCH          = 2026-02-14T11:09:31.990176
MEAN_MOTION    = 15.50023295
ECCENTRICITY   = .0007837
INCLINATION    = 51.6307
RA_OF_ASC_NODE = 187.0718
ARG_OF_PERICENTER = 83.1418
MEAN_ANOMALY   = 277.0462

EPHEMERIS_TYPE = 0
CLASSIFICATION_TYPE = U
NORAD_CAT_ID   = 67687
ELEMENT_SET_NO = 999
REV_AT_EPOCH   = 110
BSTAR          = .73265E-3
MEAN_MOTION_DOT = .41654E-3
MEAN_MOTION_DDOT = 0

CCSDS_OMM_VERS = 2.0
CREATION_DATE  = 
ORIGINATOR     = 

OBJECT_NAME    = ISS OBJECT YE
OBJECT_ID      = 1998-067YE
CENTER_NAME    = EARTH
REF_FRAME      = TEME
TIME_SYSTEM    = UTC
MEAN_ELEMENT_THEORY = SGP/SGP4

EPOCH          = 2026-02-14T11:08:35.011968
MEAN_MOTION    = 15.50174969
ECCENTRICITY   = .0007736
INCLINATION    = 51.6309
RA_OF_ASC_NODE = 187.0682
ARG_OF_PERICENTER = 81.8299
MEAN_ANOMALY   = 278.3567

EPHEMERIS_TYPE = 0
CLASSIFICATION_TYPE = U
NORAD_CAT_ID   = 67688
ELEMENT_SET_NO = 999
REV_AT_EPOCH   = 110
BSTAR          = .82044E-3
MEAN_MOTION_DOT = .46984E-3
MEAN_MOTION_DDOT = 0

CCSDS_OMM_VERS = 2.0
CREATION_DATE  = 
ORIGINATOR     = 

OBJECT_NAME    = CREW DRAGON 12
OBJECT_ID      = 2026-031A
CENTER_NAME    = EARTH
REF_FRAME      = TEME
TIME_SYSTEM    = UTC
MEAN_ELEMENT_THEORY = SGP/SGP4

EPOCH          = 2026-02-13T14:39:05.346720
MEAN_MOTION    = 16.18051748
ECCENTRICITY   = .0025866
INCLINATION    = 51.6318
RA_OF_ASC_NODE = 191.8838
ARG_OF_PERICENTER = 226.1048
MEAN_ANOMALY   = 133.7834

EPHEMERIS_TYPE = 0
CLASSIFICATION_TYPE = U
NORAD_CAT_ID   = 67796
ELEMENT_SET_NO = 999
REV_AT_EPOCH   = 3
BSTAR          = .25516E-3
MEAN_MOTION_DOT = .465694E-2
MEAN_MOTION_DDOT = .11779E-4

