SILVERSAT               
1 66909U 98067XV  26045.38365376  .00142220  00000+0  14246-2 0  9997
2 66909  51.6267 183.5285 0002912 302.1319  57.9393 15.64565325 11532
ISS OBJECT XW           
1 66910U 98067XW  26045.40482725  .00109816  00000+0  11845-2 0  9996
2 66910  51.6252 183.6647 0002235 332.2237  27.8637 15.62815467 11532
ISS OBJECT XX           
1 66911U 98067XX  26045.41274635  .00164208  00000+0  15450-2 0  9999
2 66911  51.6234 182.9638 0003946 321.4653  38.6060 15.66053079 11534
ISS OBJECT XY           
1 66912U 98067XY  26045.41446176  .00080627  00000+0  98798-3 0  9990
2 66912  51.6273 184.4870 0000534 329.8483  30.2479 15.59642198 11514
ISS OBJECT XZ           
1 67683U 98067XZ  26045.46535527  .00040491  00000+0  71393-3 0  9997
2 67683  51.6302 187.0736 0010622 111.0726 249.1399 15.49940259  1185
GXIBA-1                 
1 67684U 98067YA  26045.46198552  .00071932  00000+0  12202-2 0  9998
2 67684  51.6304 187.0530 0012315 104.8005 255.4349 15.50759496  1189
CORAL                   
1 67685U 98067YB  26045.46467388  .00043927  00000+0  76896-3 0  9998
2 67685  51.6302 187.0695 0012545 106.6601 253.5766 15.50082373  1182
ISS OBJECT YC           
1 67686U 98067YC  26045.46409265  .00050918  00000+0  88585-3 0  9995
2 67686  51.6308 187.0668 0007751  81.2327 278.9539 15.50244458  1188
LEOPARD                 
1 67687U 98067YD  26045.46495359  .00041654  00000+0  73265-3 0  9991
2 67687  51.6307 187.0718 0007837  83.1418 277.0462 15.50023295  1102
ISS OBJECT YE           
1 67688U 98067YE  26045.46429412  .00046984  00000+0  82044-3 0  9995
2 67688  51.6309 187.0682 0007736  81.8299 278.3567 15.50174969  1100
CREW DRAGON 12          
1 67796U 26031A   26044.61047855  .00465694  11779-4  25516-3 0  9994
2 67796  51.6318 191.8838 0025866 226.1048 133.7834 16.18051748    32
